{"fetched_at":"2026-07-14T17:40:28.416Z","source":"https://celestrak.org/NORAD/elements/gp.php?GROUP=spire&FORMAT=JSON","constellation":"spire","records":[{"OBJECT_NAME":"LEMUR-2-MYRA","OBJECT_ID":"2025-276EC","EPOCH":"2026-07-14T03:16:08.277888","CLASSIFICATION_TYPE":"U","MEAN_MOTION":15.00581958,"ECCENTRICITY":0.0018709,"INCLINATION":97.5222,"RA_OF_ASC_NODE":265.1383,"ARG_OF_PERICENTER":57.4566,"MEAN_ANOMALY":302.8462,"EPHEMERIS_TYPE":0,"NORAD_CAT_ID":66787,"ELEMENT_SET_NO":999,"REV_AT_EPOCH":3425,"BSTAR":0.00028738,"MEAN_MOTION_DOT":0.00003583,"MEAN_MOTION_DDOT":0},{"OBJECT_NAME":"LEMUR-2 FIKRETDENGIZ","OBJECT_ID":"2026-004A","EPOCH":"2026-07-13T22:59:09.845376","CLASSIFICATION_TYPE":"U","MEAN_MOTION":14.8851214,"ECCENTRICITY":0.0010267,"INCLINATION":97.8023,"RA_OF_ASC_NODE":193.1085,"ARG_OF_PERICENTER":59.2566,"MEAN_ANOMALY":300.9661,"EPHEMERIS_TYPE":0,"NORAD_CAT_ID":67363,"ELEMENT_SET_NO":999,"REV_AT_EPOCH":2726,"BSTAR":0.00024244,"MEAN_MOTION_DOT":0.000022,"MEAN_MOTION_DDOT":0},{"OBJECT_NAME":"TWILIGHT-1 OBJECT B","OBJECT_ID":"2026-004B","EPOCH":"2026-07-13T12:33:51.391872","CLASSIFICATION_TYPE":"U","MEAN_MOTION":14.87790232,"ECCENTRICITY":0.0009855,"INCLINATION":97.8074,"RA_OF_ASC_NODE":192.6825,"ARG_OF_PERICENTER":50.7792,"MEAN_ANOMALY":309.4298,"EPHEMERIS_TYPE":0,"NORAD_CAT_ID":67364,"ELEMENT_SET_NO":999,"REV_AT_EPOCH":2720,"BSTAR":0.00010933,"MEAN_MOTION_DOT":0.00000944,"MEAN_MOTION_DDOT":0},{"OBJECT_NAME":"LEMUR-2-MARIO-SOUSA","OBJECT_ID":"2026-004C","EPOCH":"2026-07-14T00:07:12.260928","CLASSIFICATION_TYPE":"U","MEAN_MOTION":14.88721612,"ECCENTRICITY":0.0009895,"INCLINATION":97.7996,"RA_OF_ASC_NODE":193.1501,"ARG_OF_PERICENTER":60.3024,"MEAN_ANOMALY":299.9177,"EPHEMERIS_TYPE":0,"NORAD_CAT_ID":67365,"ELEMENT_SET_NO":999,"REV_AT_EPOCH":2728,"BSTAR":0.00029801,"MEAN_MOTION_DOT":0.00002732,"MEAN_MOTION_DDOT":0},{"OBJECT_NAME":"LEMUR-2-SONNENBLUME","OBJECT_ID":"2026-004E","EPOCH":"2026-07-13T22:34:11.577792","CLASSIFICATION_TYPE":"U","MEAN_MOTION":14.88449605,"ECCENTRICITY":0.0009463,"INCLINATION":97.8,"RA_OF_ASC_NODE":193.0597,"ARG_OF_PERICENTER":61.6526,"MEAN_ANOMALY":298.5644,"EPHEMERIS_TYPE":0,"NORAD_CAT_ID":67367,"ELEMENT_SET_NO":999,"REV_AT_EPOCH":2727,"BSTAR":0.00016643,"MEAN_MOTION_DOT":0.00001491,"MEAN_MOTION_DDOT":0},{"OBJECT_NAME":"LEMUR-2-WOBLER","OBJECT_ID":"2026-004F","EPOCH":"2026-07-13T23:55:51.195648","CLASSIFICATION_TYPE":"U","MEAN_MOTION":14.88692475,"ECCENTRICITY":0.0009543,"INCLINATION":97.8046,"RA_OF_ASC_NODE":193.2653,"ARG_OF_PERICENTER":53.5609,"MEAN_ANOMALY":306.6486,"EPHEMERIS_TYPE":0,"NORAD_CAT_ID":67368,"ELEMENT_SET_NO":999,"REV_AT_EPOCH":2728,"BSTAR":0.00023788,"MEAN_MOTION_DOT":0.00002167,"MEAN_MOTION_DDOT":0},{"OBJECT_NAME":"LEMUR-2-GRAM-E-SUE","OBJECT_ID":"2026-004H","EPOCH":"2026-07-13T23:44:23.819712","CLASSIFICATION_TYPE":"U","MEAN_MOTION":14.88586337,"ECCENTRICITY":0.0008669,"INCLINATION":97.7985,"RA_OF_ASC_NODE":193.1242,"ARG_OF_PERICENTER":64.1475,"MEAN_ANOMALY":296.0635,"EPHEMERIS_TYPE":0,"NORAD_CAT_ID":67370,"ELEMENT_SET_NO":999,"REV_AT_EPOCH":2728,"BSTAR":0.00014336,"MEAN_MOTION_DOT":0.00001281,"MEAN_MOTION_DDOT":0},{"OBJECT_NAME":"LEMUR-2-KATIE","OBJECT_ID":"2026-004AA","EPOCH":"2026-07-13T22:44:21.579072","CLASSIFICATION_TYPE":"U","MEAN_MOTION":14.90244792,"ECCENTRICITY":0.0003604,"INCLINATION":97.8042,"RA_OF_ASC_NODE":193.6305,"ARG_OF_PERICENTER":37.0859,"MEAN_ANOMALY":323.0608,"EPHEMERIS_TYPE":0,"NORAD_CAT_ID":67387,"ELEMENT_SET_NO":999,"REV_AT_EPOCH":2729,"BSTAR":0.0003177,"MEAN_MOTION_DOT":0.00003027,"MEAN_MOTION_DDOT":0},{"OBJECT_NAME":"LEMUR-2-HCS-BAZUS","OBJECT_ID":"2026-004AB","EPOCH":"2026-07-13T13:01:52.912128","CLASSIFICATION_TYPE":"U","MEAN_MOTION":14.90256181,"ECCENTRICITY":0.0003154,"INCLINATION":97.8038,"RA_OF_ASC_NODE":193.2094,"ARG_OF_PERICENTER":36.4661,"MEAN_ANOMALY":323.6771,"EPHEMERIS_TYPE":0,"NORAD_CAT_ID":67388,"ELEMENT_SET_NO":999,"REV_AT_EPOCH":2723,"BSTAR":0.00017207,"MEAN_MOTION_DOT":0.00001614,"MEAN_MOTION_DDOT":0}]}
